CSS (TIANHE)            
1 48274U 21035A   26190.63828422  .00000907  00000+0  16026-4 0  9993
2 48274  41.4689 185.5127 0002646 282.7023  77.3519 15.58017701296677
